     3.03           N: GNSS NAV DATA    M: Mixed            RINEX VERSION / TYPE
sbp2rinex v2.2 (RTKL                    20210504 171529 UTC PGM / RUN BY / DATE 
log: 202101042230-202101042310.sbp                          COMMENT             
format: Swift Navigation SBP, option: CONVBASE,EPHALL,OBSALLCOMMENT             
                                                            END OF HEADER       
G 7 2021  1  5  0  0  0  .929227098823E-05  .146656020661E-10  .000000000000E+00
      .610000000000E+02  .442187500000E+02  .489913263997E-08 -.152592892042E+01
      .229291617870E-05  .143014250789E-01  .697188079357E-05  .515361301804E+04
      .172800000000E+06  .249594449997E-06  .221014973987E+01 -.502914190292E-07
      .951944739222E+00  .234781250000E+03 -.235646865128E+01 -.813855328913E-08
      .354300472323E-09  .200000000000E+01  .213900000000E+04  .100000000000E+01
      .280000000000E+01  .000000000000E+00 -.111758708954E-07  .610000000000E+02
      .169217000000E+06  .400000000000E+01
G 8 2021  1  5  0  0  0 -.542961061001E-05 -.136424205266E-11  .000000000000E+00
      .410000000000E+02  .237812500000E+02  .431446542909E-08  .137141196239E+01
      .152550637722E-05  .602380791679E-02  .917911529541E-05  .515377637482E+04
      .172800000000E+06  .298023223877E-07 -.200500567973E+01  .670552253723E-07
      .968379389140E+00  .203718750000E+03 -.491589672569E-01 -.798961851397E-08
     -.253939149013E-09  .200000000000E+01  .213900000000E+04  .100000000000E+01
      .200000000000E+01  .000000000000E+00  .512227416039E-08  .410000000000E+02
      .169217000000E+06  .400000000000E+01
G 9 2021  1  5  0  0  0 -.309261959046E-03 -.420641299570E-11  .000000000000E+00
      .350000000000E+02 -.327812500000E+02  .448197240643E-08  .174938062644E+01
     -.170245766640E-05  .202527211513E-02  .104103237391E-04  .515359394264E+04
      .172800000000E+06  .465661287308E-07  .113674795482E+01 -.745058059692E-08
      .952827152390E+00  .174468750000E+03  .178592587514E+01 -.799211861811E-08
      .159292349451E-09  .200000000000E+01  .213900000000E+04  .100000000000E+01
      .200000000000E+01  .000000000000E+00  .139698386192E-08  .350000000000E+02
      .169217000000E+06  .400000000000E+01
G10 2021  1  5  0  0  0 -.319271348417E-04 -.864019966684E-11  .000000000000E+00
      .800000000000E+02 -.799375000000E+02  .441732685654E-08 -.289336860965E+01
     -.413879752159E-05  .634436507244E-02  .598467886448E-05  .515366984558E+04
      .172800000000E+06 -.204890966415E-07  .103770222881E+00  .558793544769E-08
      .968098723918E+00  .269000000000E+03 -.262523739593E+01 -.808855120634E-08
     -.828605943335E-10  .200000000000E+01  .213900000000E+04  .100000000000E+01
      .200000000000E+01  .000000000000E+00  .232830643654E-08  .800000000000E+02
      .169217000000E+06  .400000000000E+01
G14 2021  1  5  0  0  0  .797603279352E-04  .727595761418E-11  .000000000000E+00
      .152000000000E+03 -.656250000000E+00  .478912805784E-08 -.105395767126E+01
     -.242143869400E-07  .234204460867E-03  .690110027790E-05  .515373710823E+04
      .172800000000E+06 -.353902578354E-07 -.298919725593E+01 -.596046447754E-07
      .959266262387E+00  .246875000000E+03  .190002946961E+01 -.823355724642E-08
     -.341799951626E-09  .200000000000E+01  .213900000000E+04  .100000000000E+01
      .200000000000E+01  .000000000000E+00 -.232830643654E-08  .664000000000E+03
      .169217000000E+06  .400000000000E+01
G15 2021  1  5  0  0  0 -.178533140570E-03  .261479726760E-11  .000000000000E+00
      .150000000000E+02 -.416250000000E+02  .510985570314E-08  .319136104180E+00
     -.206939876080E-05  .131077169208E-01  .111628323793E-04  .515380294800E+04
      .172800000000E+06 -.156462192535E-06  .104142142153E+01  .193715095520E-06
      .928495332746E+00  .148531250000E+03  .963345134003E+00 -.847428155927E-08
      .282154610015E-10  .200000000000E+01  .213900000000E+04  .100000000000E+01
      .200000000000E+01  .000000000000E+00 -.107102096081E-07  .150000000000E+02
      .169217000000E+06  .400000000000E+01
G16 2021  1  5  0  0  0 -.260397326201E-03 -.557065504836E-11  .000000000000E+00
      .560000000000E+02 -.312500000000E+01  .445589989183E-08  .222311106239E+01
     -.240281224251E-06  .119903144659E-01  .729598104954E-05  .515362707138E+04
      .172800000000E+06 -.212341547012E-06 -.294551456743E+01 -.134110450745E-06
      .975887251495E+00  .250125000000E+03  .638113360326E+00 -.796676041898E-08
     -.343942898031E-09  .200000000000E+01  .213900000000E+04  .100000000000E+01
      .200000000000E+01  .000000000000E+00 -.107102096081E-07  .560000000000E+02
      .169217000000E+06  .400000000000E+01
G17 2021  1  5  0  0  0  .376108568162E-03  .488853402203E-11  .000000000000E+00
      .660000000000E+02  .280937500000E+02  .391587739773E-08  .120455735892E+01
      .124052166939E-05  .136150347535E-01  .960007309914E-05  .515352973175E+04
      .172800000000E+06 -.186264514923E-06 -.192910263162E+01 -.249594449997E-06
      .982934326840E+00  .210906250000E+03 -.159219684921E+01 -.791140097018E-08
     -.129648257513E-09  .200000000000E+01  .213900000000E+04  .100000000000E+01
      .200000000000E+01  .000000000000E+00 -.111758708954E-07  .660000000000E+02
      .169217000000E+06  .400000000000E+01
G18 2021  1  5  0  0  0  .338755548000E-03  .306954461848E-11  .000000000000E+00
      .900000000000E+01  .402187500000E+02  .448268672190E-08 -.740145023565E+00
      .197999179363E-05  .118827761617E-02  .528059899807E-05  .515369481468E+04
      .172800000000E+06  .484287738800E-07 -.918043590600E+00 -.875443220139E-07
      .966429739198E+00  .281843750000E+03  .302709535421E+01 -.825605818368E-08
      .178221709364E-09  .200000000000E+01  .213900000000E+04  .100000000000E+01
      .200000000000E+01  .000000000000E+00 -.838190317154E-08  .900000000000E+01
      .169217000000E+06  .400000000000E+01
G19 2021  1  5  0  0  0 -.561545602977E-04  .500222085975E-11  .000000000000E+00
      .710000000000E+02  .475625000000E+02  .391837750187E-08 -.249700421157E+01
      .249221920967E-05  .898937042803E-02  .939704477787E-05  .515361494637E+04
      .172800000000E+06  .819563865662E-07 -.188376302748E+01  .111758708954E-06
      .981314352802E+00  .208281250000E+03  .176628326385E+01 -.764674708914E-08
     -.539308178636E-10  .200000000000E+01  .213900000000E+04  .100000000000E+01
      .200000000000E+01  .000000000000E+00 -.153668224812E-07  .710000000000E+02
      .169217000000E+06  .400000000000E+01
G20 2021  1  5  0  0  0  .525306910276E-03 -.227373675443E-12  .000000000000E+00
      .390000000000E+02 -.710625000000E+02  .516628662515E-08 -.145615862971E+01
     -.369735062122E-05  .586945586838E-02  .484660267830E-05  .515366495895E+04
      .172800000000E+06 -.128522515297E-06 -.343657699408E-01 -.130385160446E-07
      .936846747313E+00  .275000000000E+03  .281505519481E+01 -.857750014445E-08
     -.392873507616E-11  .200000000000E+01  .213900000000E+04  .100000000000E+01
      .200000000000E+01  .000000000000E+00 -.838190317154E-08  .390000000000E+02
      .169217000000E+06  .400000000000E+01
G21 2021  1  5  0  0  0  .839480198920E-04  .341060513165E-11  .000000000000E+00
      .940000000000E+02  .252500000000E+02  .469698136241E-08  .155674989210E+01
      .841915607452E-06  .241564654279E-01  .509060919285E-05  .515373694611E+04
      .172800000000E+06  .452622771263E-06 -.101182519902E+01 -.314787030220E-06
      .955623417894E+00  .269000000000E+03 -.121844098253E+01 -.817355474708E-08
      .692886004340E-10  .200000000000E+01  .213900000000E+04  .100000000000E+01
      .200000000000E+01  .000000000000E+00 -.102445483208E-07  .940000000000E+02
      .169217000000E+06  .400000000000E+01
G22 2021  1  5  0  0  0 -.703801866621E-03  .648014975013E-11  .000000000000E+00
      .670000000000E+02 -.631875000000E+02  .533557939116E-08  .293959583934E+00
     -.337883830070E-05  .683649943676E-02  .501051545143E-05  .515363691711E+04
      .172800000000E+06  .372529029846E-07  .123352945231E-01 -.126659870148E-06
      .933535297652E+00  .272343750000E+03 -.105542015046E+01 -.872607776188E-08
     -.135005623526E-09  .200000000000E+01  .213900000000E+04  .100000000000E+01
      .200000000000E+01  .000000000000E+00 -.181607902050E-07  .670000000000E+02
      .169217000000E+06  .400000000000E+01
G23 2021  1  5  0  0  0  .114548951387E-03  .193267624127E-11  .000000000000E+00
      .320000000000E+02 -.782812500000E+02  .453340312015E-08 -.104898477676E+01
     -.401400029659E-05  .108420243487E-02  .572763383389E-05  .515363763809E+04
      .172800000000E+06 -.838190317154E-07  .810563087092E-01  .800937414169E-07
      .963050673463E+00  .271312500000E+03  .229742369180E+01 -.821784230612E-08
     -.100004165575E-09  .200000000000E+01  .213900000000E+04  .100000000000E+01
      .200000000000E+01  .000000000000E+00 -.838190317154E-08  .288000000000E+03
      .169217000000E+06  .400000000000E+01
G25 2021  1  4 23 59 44  .533061102033E-04  .750333128963E-11  .000000000000E+00
      .280000000000E+02 -.553125000000E+01  .478198490315E-08 -.252463305358E+01
     -.359490513802E-06  .959484570194E-02  .686757266521E-05  .515368127060E+04
      .172784000000E+06  .162050127983E-06 -.303597521868E+01 -.819563865662E-07
      .963070122959E+00  .246812500000E+03  .930629986234E+00 -.811105214359E-08
     -.258582199558E-09  .200000000000E+01  .213900000000E+04  .100000000000E+01
      .200000000000E+01  .000000000000E+00  .558793544769E-08  .280000000000E+02
      .169217000000E+06  .400000000000E+01
